STARLINK-4310           
1 53074U 22077AH  23092.56373406  .00000700  00000+0  59100-4 0  9992
2 53074  97.6539 274.7324 0003326  62.6913 297.4649 15.01263047 40060
STARLINK-4348           
1 53075U 22077AJ  23092.55632665  .00000742  00000+0  62310-4 0  9990
2 53075  97.6530 274.7143 0001736  99.8806 260.2615 15.01263210 40060
STARLINK-4347           
1 53076U 22077AK  23092.56163466  .00001309  00000+0  10644-3 0  9992
2 53076  97.6535 274.7287 0002985  77.7778 282.3780 15.01265137 40063
STARLINK-4315           
1 53077U 22077AL  23092.55422816  .00000897  00000+0  74416-4 0  9998
2 53077  97.6533 274.7114 0001352 105.3134 254.8239 15.01262877 40063
STARLINK-4322           
1 53078U 22077AM  23092.55794189  .00000021  00000+0  62440-5 0  9998
2 53078  97.6526 274.7195 0001834  96.1206 264.0227 15.01255999 40064
STARLINK-4327           
1 53079U 22077AN  23092.48572578  .00000480  00000+0  41919-4 0  9993
2 53079  97.6532 274.6429 0001035 109.7599 250.3737 15.01262374 40058
STARLINK-4330           
1 53080U 22077AP  23092.48942482  .00001023  00000+0  84250-4 0  9999
2 53080  97.6532 274.6481 0001514  98.9883 261.1513 15.01265967 40632
STARLINK-4326           
1 53081U 22077AQ  23092.48226543  .00001026  00000+0  84424-4 0  9999
2 53081  97.6536 274.6380 0000414 171.5628 188.5604 15.01262196 40058
STARLINK-4321           
1 53082U 22077AR  23092.48387211  .00000896  00000+0  74343-4 0  9993
2 53082  97.6534 274.6408 0000595 135.8020 224.3251 15.01261935 40054
STARLINK-4251           
1 53083U 22077AS  23092.47090322  .00001120  00000+0  91780-4 0  9992
2 53083  97.6543 274.6239 0003278 215.9810 144.1194 15.01263465 40050
STARLINK-4319           
1 53084U 22077AT  23092.48202006  .00000668  00000+0  56593-4 0  9997
2 53084  97.6535 274.6381 0000371 170.9943 189.1288 15.01261902 40639
STARLINK-4324           
1 53085U 22077AU  23092.47831327  .00001177  00000+0  96228-4 0  9996
2 53085  97.6531 274.6342 0002122 220.0364 140.0704 15.01261809 40054
STARLINK-4318           
1 53086U 22077AV  23092.48017531  .00001012  00000+0  83381-4 0  9995
2 53086  97.6536 274.6351 0000529 164.3237 195.8004 15.01259427 40636
STARLINK-4329           
1 53087U 22077AW  23092.47485679  .00000551  00000+0  47502-4 0  9999
2 53087  97.6538 274.6284 0000520 212.6264 147.4928 15.01262820 40631
STARLINK-4333           
1 53088U 22077AX  23092.47645982  .00001041  00000+0  85601-4 0  9992
2 53088  97.6534 274.6308 0002427 221.5589 138.5451 15.01263298 40050
TIANLIAN 2-03           
1 53100U 22078A   23089.27757694  .00000063  00000+0  00000+0 0  9994
2 53100   2.3690 282.2435 0003128 137.8199 237.9319  1.00277335  2777
LARES-2                 
1 53105U 22080A   23092.32185520 -.00000022  00000+0  00000+0 0  9991
2 53105  70.1752 347.2505 0005416 231.1700 128.8537  6.38965000 16798
GREENCUBE               
1 53106U 22080B   23088.05176028 -.00000003  00000+0  00000+0 0  9999
2 53106  70.1795 347.5677 0008286 204.3079 155.7190  6.42557135 16603
MTCUBE 2 (ROBUSTA 1F)   
1 53109U 22080E   23091.15388116 -.00000003  00000+0  00000+0 0  9990
2 53109  70.1636 346.2277 0008753 192.9580 167.0855  6.42583998 16699
SUPERVIEW NEO-2 O1      
1 53128U 22082A   23092.60880841  .00011944  00000+0  48799-3 0  9992
2 53128  97.3928 102.0005 0001775  90.7553 269.3888 15.24525728 39711
CZ-2C DEB               
1 53129U 22082B   23092.57244428  .00537195  00000+0  38646-2 0  9994
2 53129  97.3631 106.4125 0008860 111.5563 248.6645 15.72013450 40023
SUPERVIEW NEO-2 02      
1 53130U 22082C   23092.56650495  .00012198  00000+0  49892-3 0  9997
2 53130  97.3935 102.0166 0001752  94.9272 265.2166 15.24484607 39713
STARLINK-4063           
1 53132U 22083A   23092.04183321  .00003887  00000+0  26220-3 0  9997
2 53132  53.2151 309.4218 0000929  95.7962 264.3136 15.08834004 39288
STARLINK-4154           
1 53133U 22083B   23092.59015432  .00011784  00000+0  75714-3 0  9992
2 53133  53.2161 306.9615 0001020  88.1737 271.9372 15.08845937 39353
STARLINK-4150           
1 53134U 22083C   23092.57911664  .00002754  00000+0  19107-3 0  9994
2 53134  53.2149 307.0098 0001046 107.9220 252.1886 15.08834273 39365
STARLINK-4023           
1 53135U 22083D   23092.58647226  .00006507  00000+0  42646-3 0  9990
2 53135  53.2152 306.9751 0001105  95.9757 264.1361 15.08844912 40354
STARLINK-4152           
1 53136U 22083E   23092.58279388  .00008897  00000+0  57631-3 0  9995
2 53136  53.2147 306.9943 0000882  82.1917 277.9175 15.08843796 40353
STARLINK-4145           
1 53137U 22083F   23092.57543029  .00013879  00000+0  88810-3 0  9990
2 53137  53.2145 307.0274 0000610 108.7036 251.4022 15.08852928 39361
STARLINK-4141           
1 53138U 22083G   23092.02668934  .00006817  00000+0  44605-3 0  9992
2 53138  53.2155 304.4956 0000989 104.0164 256.0938 15.08833404 40122
STARLINK-4185           
1 53139U 22083H   23092.56439307  .00002049  00000+0  14680-3 0  9995
2 53139  53.2158 307.0777 0001098 108.3366 251.7745 15.08838475 39364
STARLINK-4170           
1 53140U 22083J   23092.56807350  .00016239  00000+0  10358-2 0  9997
2 53140  53.2163 307.0639 0000981 116.9738 243.1355 15.08848767 39364
STARLINK-4103           
1 53141U 22083K   23092.61591166  .00003389  00000+0  23087-3 0  9995
2 53141  53.2168 306.8492 0000995  69.2133 290.8965 15.08842854 39376
STARLINK-4101           
1 53142U 22083L   23092.56071436  .00015883  00000+0  10137-2 0  9996
2 53142  53.2155 307.0926 0001169  92.2774 267.8352 15.08842100 39377
STARLINK-4102           
1 53143U 22083M   23092.61223365  .00005848  00000+0  38513-3 0  9992
2 53143  53.2163 306.8628 0001233  55.9817 304.1292 15.08844919 39377
STARLINK-4100           
1 53144U 22083N   23092.62327301  .00006297  00000+0  41331-3 0  9990
2 53144  53.2147 306.8127 0001032  91.3564 268.7547 15.08846098 39372
STARLINK-4106           
1 53145U 22083P   23092.40614948  .00005591  00000+0  36899-3 0  9992
2 53145  53.2154 307.7923 0000862  78.9120 281.1969 15.08846027 39340
STARLINK-4099           
1 53146U 22083Q   23092.61959302  .00009455  00000+0  61121-3 0  9991
2 53146  53.2162 306.8322 0000764  92.6984 267.4096 15.08848089 39376
STARLINK-4094           
1 53147U 22083R   23092.60119533  .00013791  00000+0  88256-3 0  9991
2 53147  53.2169 306.9135 0001238  72.0227 288.0900 15.08853875 40022
STARLINK-4066           
1 53148U 22083S   23092.60951151  .00013513  00000+0  86528-3 0  9994
2 53148  53.2163 306.8906 0000658  39.8133 320.2907 15.08849156 39373
STARLINK-4021           
1 53149U 22083T   23092.01331266  .00010608  00000+0  68362-3 0  9997
2 53149  53.2156 299.5533 0000643  91.9320 268.1745 15.08839053 39422
STARLINK-4038           
1 53150U 22083U   23092.58371499  .00011686  00000+0  75101-3 0  9999
2 53150  53.2169 296.9919 0001320  65.6959 294.4171 15.08843949 39509
STARLINK-4040           
1 53151U 22083V   23092.57267061  .00004118  00000+0  27660-3 0  9997
2 53151  53.2158 297.0410 0000951  71.7258 288.3838 15.08844823 39509
STARLINK-4045           
1 53152U 22083W   23092.58003179  .00008140  00000+0  52885-3 0  9993
2 53152  53.2170 297.0092 0001294  69.3181 290.7950 15.08846652 39503
STARLINK-4098           
1 53153U 22083X   23092.56899013  .00002821  00000+0  19526-3 0  9997
2 53153  53.2165 297.0565 0001438  64.4797 295.6343 15.08839983 39501
STARLINK-4077           
1 53154U 22083Y   23092.57635313  .00011298  00000+0  72662-3 0  9998
2 53154  53.2154 297.0277 0001054  73.3408 286.7700 15.08850561 39505
STARLINK-4088           
1 53155U 22083Z   23092.56164509  .00007397  00000+0  48247-3 0  9999
2 53155  53.2152 297.0932 0000937  88.9500 271.1599 15.08828683 40131
STARLINK-4087           
1 53156U 22083AA  23092.56260069 -.00002040  00000+0 -11019-3 0  9997
2 53156  53.2154 297.0868 0001226  90.2269 269.8863 15.08821843 40131
STARLINK-4093           
1 53157U 22083AB  23092.62051222 -.00000637  00000+0 -21959-4 0  9999
2 53157  53.2156 296.8276 0001145  77.0305 283.0815 15.08850971 39517
STARLINK-4054           
1 53158U 22083AC  23092.56531451  .00012188  00000+0  78238-3 0  9993
2 53158  53.2155 297.0766 0000988  86.2483 273.8622 15.08846618 39502
STARLINK-4111           
1 53159U 22083AD  23092.54691120  .00003708  00000+0  25090-3 0  9998
2 53159  53.2141 297.1573 0000633  67.5455 292.5604 15.08840822 39502
STARLINK-4096           
1 53160U 22083AE  23092.55795003  .00002476  00000+0  17357-3 0  9994
2 53160  53.2163 297.1029 0001022 122.1449 237.9642 15.08839761 39503
STARLINK-4055           
1 53161U 22083AF  23092.00595382  .00017734  00000+0  11295-2 0  9990
2 53161  53.2154 299.5855 0001097  74.0284 286.0829 15.08841499 39425
STARLINK-4114           
1 53162U 22083AG  23092.61683194  .00001471  00000+0  11046-3 0  9993
2 53162  53.2147 296.8458 0001331  83.7368 276.3775 15.08852086 39514
STARLINK-4104           
1 53163U 22083AH  23092.59570949  .00009269  00000+0  59955-3 0  9998
2 53163  53.2156 296.9376 0000967  81.4763 278.6338 15.08846439 39518
STARLINK-4116           
1 53164U 22083AJ  23092.60579515  .00010251  00000+0  66115-3 0  9998
2 53164  53.2145 296.8962 0000712 103.8183 256.2888 15.08844922 39517
STARLINK-4090           
1 53165U 22083AK  23092.52483011  .00003772  00000+0  25491-3 0  9997
2 53165  53.2154 297.2534 0000924  75.9956 284.1139 15.08843075 39506
STARLINK-4110           
1 53166U 22083AL  23092.53219239  .00004623  00000+0  30834-3 0  9991
2 53166  53.2146 297.2214 0000598 124.5571 235.5477 15.08840090 39503
STARLINK-3683           
1 53167U 22083AM  23092.54276489 -.00002251  00000+0 -12336-3 0  9997
2 53167  53.2171 282.1664 0001146  79.9501 280.1620 15.08851005 39706
STARLINK-4105           
1 53168U 22083AN  23092.59474924  .00000999  00000+0  80861-4 0  9991
2 53168  53.2160 296.9414 0000795  87.6158 272.4925 15.08837535 39517
